              M50 Cartesian                         J2K Cartesian  
    -----------------------------------       --------------------------------
     X    =       10977641.74                 X    =         3343015.68
     Y    =        8383884.47  feet           Y    =         2592807.59  meter
     Z    =      -17462386.18                 Z    =        -5306289.10
     XDOT =     -16735.894506                 XDOT =       -5162.088522
     YDOT =      18677.626508  feet/sec       YDOT =        5635.555584  meter/sec
     ZDOT =      -1548.639566                 ZDOT =        -496.954007
 
              TDR Cartesian                         TDR Cartesian  
    -----------------------------------       --------------------------------
     X    =        6459207.81                 X    =         1968766.54
     Y    =       12309460.66  feet           Y    =         3751923.61  meter
     Z    =      -17392207.48                 Z    =        -5301144.84
     XDOT =     -22193.395060                 XDOT =       -6764.546814
     YDOT =       9296.214344  feet/sec       YDOT =        2833.486132  meter/sec
     ZDOT =      -1657.852627                 ZDOT =        -505.313481
  
  
    The mean element set is posted at the UTC for which position is
    just north of the next ascending node relative to the above
    vector time
 
 
    TWO LINE MEAN ELEMENT SET
  
    ISS
    1 25544U 98067A   16081.45098153  .00016717  00000-0  10270-3 0  9176
    2 25544  51.6421 135.6051 0001968 330.0377  30.0663 15.54291293 31338
  
  
    Satellite: ISS
    Catalog Number: 25544
    Epoch time:      16081.45098153   =   yrday.fracday
    Element set:     917
    Inclination:       51.6421  deg
    RA of node:       135.6051  deg
    Eccentricity:     .0001968     
    Arg of perigee:   330.0377  deg
    Mean anomaly:      30.0663  deg
    Mean motion:   15.54291293  rev/day
    Decay rate:    1.67170E-04  rev/day^2
    Epoch rev:            3133
    Checksum:              288
 
 
    Coasting Arc #19 (Orbit 3148)
    ---------------------------------------
 
    Vector Time (GMT): 2016/082/10:25:00.000
    Vector Time (MET): N/A
    Weight (LBS)     : 905198.2
 
              M50 Cartesian                         M50 Keplerian  
    -----------------------------------       --------------------------------
     X    =       -2008401.08                 A    =         6777415.85  meter
     Y    =       -3911261.25  meter          E    =           .0005345
     Z    =        5156143.37                 I    =           51.90447
     XDOT =       5661.568836                 Wp   =           33.66743
     YDOT =      -4941.172929  meter/sec      RA   =          129.65468  deg
     ZDOT =      -1537.822500                 TA   =           71.12082
                                              MA   =           71.06286
                                              Ha   =            220.484  n.mi
                                              Hp   =            214.614
 
              M50 Cartesian                         J2K Cartesian  
    -----------------------------------       --------------------------------
     X    =       -6589242.40                 X    =        -1989561.32
     Y    =      -12832221.95  feet           Y    =        -3933614.35  meter
     Z    =       16916480.88                 Z    =         5146433.51
     XDOT =      18574.700904                 XDOT =        5723.871522
     YDOT =     -16211.197272  feet/sec       YDOT =       -4877.513395  meter/sec
     ZDOT =      -5045.349408                 ZDOT =       -1510.168041
 
              TDR Cartesian                         TDR Cartesian  
    -----------------------------------       --------------------------------
     X    =        -838965.87                 X    =         -255716.80
     Y    =      -14449382.01  feet           Y    =        -4404171.64  meter
     Z    =       16874917.98                 Z    =         5143475.00
     XDOT =      22568.727482                 XDOT =        6878.948136
     YDOT =      -7081.006539  feet/sec       YDOT =       -2158.290793  meter/sec
     ZDOT =      -4924.400728                 ZDOT =       -1500.957342
  
  
    The mean element set is posted at the UTC for which position is
    just north of the next ascending node relative to the above
    vector time
 
 
    TWO LINE MEAN ELEMENT SET
  
    ISS
    1 25544U 98067A   16082.47968768  .00016717  00000-0  10270-3 0  9188
    2 25544  51.6422 130.4758 0001979 332.7858  27.3191 15.54361674 31494
  
  
    Satellite: ISS
    Catalog Number: 25544
    Epoch time:      16082.47968768   =   yrday.fracday
    Element set:     918
    Inclination:       51.6422  deg
    RA of node:       130.4758  deg
    Eccentricity:     .0001979     
    Arg of perigee:   332.7858  deg
    Mean anomaly:      27.3191  deg
    Mean motion:   15.54361674  rev/day
    Decay rate:    1.67170E-04  rev/day^2
    Epoch rev:            3149
    Checksum:              346
 
             </PRE>
           </TD>
        </TR>
    </TABLE>
    
    <table align="center" border="0" width="600" cellpadding="0" cellspacing="0">
      <tr>
        <td align="center" valign="top"><hr size="1" width="600" noshade="noshade" />
        <font face="Arial,helvetica" size="-2">Curator: <a href="/cgi-bin/comment.cgi?jsc-hsfwebma@mail.nasa.gov">Kim 
          Dismukes</a> | Responsible NASA Official: <a href="/cgi-bin/comment.cgi?jsc-hsfwebma@mail.nasa.gov">Amiko Kauderer</a> | Updated: 06/08/2009<br />
        <a href="http://www.nasa.gov/about/highlights/HP_Privacy.html">Privacy Policy and Important Notices</a></font></td>
      </tr>
    </table>
    </body>
    </html>
